[{"OBJECT_NAME":"LYNK TOWER 5","OBJECT_ID":"2024-043Z","EPOCH":"2026-03-09T22:11:51.175104","MEAN_MOTION":15.29454506,"ECCENTRICITY":0.00104056,"INCLINATION":97.5458,"RA_OF_ASC_NODE":204.7305,"ARG_OF_PERICENTER":234.6422,"MEAN_ANOMALY":125.3846,"EPHEMERIS_TYPE":0,"CLASSIFICATION_TYPE":"U","NORAD_CAT_ID":59121,"ELEMENT_SET_NO":999,"REV_AT_EPOCH":11186,"BSTAR":0.00031901545,"MEAN_MOTION_DOT":9.048e-5,"MEAN_MOTION_DDOT":0},{"OBJECT_NAME":"STARLINK-31697","OBJECT_ID":"2024-076V","EPOCH":"2026-03-09T05:25:45.128064","MEAN_MOTION":15.28599043,"ECCENTRICITY":0.00013526,"INCLINATION":43.0011,"RA_OF_ASC_NODE":11.4517,"ARG_OF_PERICENTER":268.5323,"MEAN_ANOMALY":91.5374,"EPHEMERIS_TYPE":0,"CLASSIFICATION_TYPE":"U","NORAD_CAT_ID":59583,"ELEMENT_SET_NO":999,"REV_AT_EPOCH":10634,"BSTAR":3.3673464e-5,"MEAN_MOTION_DOT":6.91e-6,"MEAN_MOTION_DDOT":0}]
